[{"OBJECT_NAME":"STARLINK-35751","OBJECT_ID":"2025-244C","EPOCH":"2026-03-09T18:24:28.018080","MEAN_MOTION":15.30206623,"ECCENTRICITY":7.717e-5,"INCLINATION":53.16,"RA_OF_ASC_NODE":229.3915,"ARG_OF_PERICENTER":106.0153,"MEAN_ANOMALY":254.0933,"EPHEMERIS_TYPE":0,"CLASSIFICATION_TYPE":"U","NORAD_CAT_ID":66208,"ELEMENT_SET_NO":999,"REV_AT_EPOCH":2167,"BSTAR":0.00085508781,"MEAN_MOTION_DOT":0.00025057,"MEAN_MOTION_DDOT":0},{"OBJECT_NAME":"COSMOS 970 DEB","OBJECT_ID":"1977-121BY","EPOCH":"2026-03-08T00:28:08.036544","MEAN_MOTION":15.38602545,"ECCENTRICITY":0.01254623,"INCLINATION":65.7647,"RA_OF_ASC_NODE":81.4591,"ARG_OF_PERICENTER":84.8291,"MEAN_ANOMALY":276.7158,"EPHEMERIS_TYPE":0,"CLASSIFICATION_TYPE":"U","NORAD_CAT_ID":20327,"ELEMENT_SET_NO":999,"REV_AT_EPOCH":74479,"BSTAR":0.0016623992,"MEAN_MOTION_DOT":0.00084425,"MEAN_MOTION_DDOT":0}]
